0 SL-12 R/B(AUX MOTOR)
1 36116U 09070F   13281.67502527  .00000132  00000-0  26627-3 0   197
2 36116 064.8968 115.1963 5691423 138.9364 356.4788 04.24416375 58954
0 SL-12 R/B(AUX MOTOR)
1 36116U 09070F   13282.84870924  .00000130  00000-0  24871-3 0   205
2 36116 064.8976 114.7717 5691060 138.8849 349.7538 04.24416644 59003
0 SL-12 R/B(AUX MOTOR)
1 36116U 09070F   13283.51137750  .00000055  00000-0  21432-3 0   221
2 36116 064.8948 114.5357 5690755 138.8541 282.2453 04.24416691 59020
0 SL-12 R/B(AUX MOTOR)
1 36116U 09070F   13283.87319568  .00000137  00000-0  25804-3 0   216
2 36116 064.8981 114.4014 5690748 138.8398 115.0690 04.24416912 59042
0 SL-12 R/B(AUX MOTOR)
1 36116U 09070F   13286.14823156  .00000130  00000-0  19925-3 0   234
2 36116 064.8995 113.5788 5690052 138.7393 351.1052 04.24417397 59141
0 SL-12 R/B(AUX MOTOR)
1 36116U 09070F   13287.18513472  .00000131  00000-0  21068-3 0   249
2 36116 064.8999 113.2042 5689747 138.6932 135.3946 04.24417552 59183
0 SL-12 R/B(AUX MOTOR)
1 36116U 09070F   13288.50318272  .00000131  00000-0  24646-3 0   253
2 36116 064.9006 112.7276 5689371 138.6348 349.2474 04.24417901 59247
0 SL-12 R/B(AUX MOTOR)
1 36116U 09070F   13290.62700888  .00000115  00000-0  26977-3 0   269
2 36116 064.9016 111.9602 5688781 138.5402 354.2593 04.24418088 59331
0 SL-12 R/B(AUX MOTOR)
1 36116U 09070F   13292.74253065  .00000107  00000-0  30908-3 0   275
2 36116 064.9028 111.1957 5688215 138.4460 346.5852 04.24418250 59427
0 SL-12 R/B(AUX MOTOR)
1 36116U 09070F   13295.16765851  .00000079  00000-0  19181-3 0   284
2 36116 064.9042 110.3194 5687541 138.3379 091.9609 04.24419007 59529
